{"type": "FeatureCollection", "features": [ {"type": "Feature", "properties": {"norad_id": 40315, "name": "COSMOS 2501 (702K)", "group": "gnss", "lat": 45.94291073142702, "lon": -132.18281555083237, "alt_km": 19169.662812590046, "timestamp": "2025-12-09T07:41:33.448605+00:00", "meta": {"OBJECT_NAME": "COSMOS 2501 (702K)", "OBJECT_ID": "2014-075A", "EPOCH": "2025-12-07T20:13:51.362112", "MEAN_MOTION": 2.13101338, "ECCENTRICITY": 0.00201356, "INCLINATION": 63.6139, "RA_OF_ASC_NODE": 196.9947, "ARG_OF_PERICENTER": 204.4913, "MEAN_ANOMALY": 155.4908, "EPHEMERIS_TYPE": 0, "CLASSIFICATION_TYPE": "U", "NORAD_CAT_ID": 40315, "ELEMENT_SET_NO": 999, "REV_AT_EPOCH": 8577, "BSTAR": 0, "MEAN_MOTION_DOT": 5.4e-07, "MEAN_MOTION_DDOT": 0}, "tle": {"line1": "1 40315U 14075A   25341.84295558  .00000054  00000+0  00000+0 0  9998", "line2": "2 40315  63.6139 196.9947 0020135 204.4913 155.4908  2.13101338 85773"}}, "geometry": {"type": "Point", "coordinates": [-132.18281555083237, 45.94291073142702]}}, {"type": "Feature", "properties": {"norad_id": 40534, "name": "GPS BIIF-9  (PRN 26)", "group": "gnss", "lat": 14.595824182543664, "lon": 20.805917501219234, "alt_km": 20334.122306577683, "timestamp": "2025-12-09T07:41:33.448617+00:00", "meta": {"OBJECT_NAME": "GPS BIIF-9  (PRN 26)", "OBJECT_ID": "2015-013A", "EPOCH": "2025-12-08T14:24:53.320032", "MEAN_MOTION": 2.00562777, "ECCENTRICITY": 0.0106864, "INCLINATION": 53.1983, "RA_OF_ASC_NODE": 212.0617, "ARG_OF_PERICENTER": 38.3765, "MEAN_ANOMALY": 322.4632, "EPHEMERIS_TYPE": 0, "CLASSIFICATION_TYPE": "U", "NORAD_CAT_ID": 40534, "ELEMENT_SET_NO": 999, "REV_AT_EPOCH": 7800, "BSTAR": 0, "MEAN_MOTION_DOT": 2.2e-07, "MEAN_MOTION_DDOT": 0}, "tle": {"line1": "1 40534U 15013A   25342.60061713  .00000022  00000+0  00000+0 0  9998", "line2": "2 40534  53.1983 212.0617 0106864  38.3765 322.4632  2.00562777 78006"}}, "geometry": {"type": "Point", "coordinates": [20.805917501219234, 14.595824182543664]}}, {"type": "Feature", "properties": {"norad_id": 40544, "name": "GSAT0203 (GALILEO 7)", "group": "gnss", "lat": 55.81501907060613, "lon": 92.53103073466805, "alt_km": 23234.73672259562, "timestamp": "2025-12-09T07:41:33.448628+00:00", "meta": {"OBJECT_NAME": "GSAT0203 (GALILEO 7)", "OBJECT_ID": "2015-017A", "EPOCH": "2025-12-07T23:40:17.785344", "MEAN_MOTION": 1.70475803, "ECCENTRICITY": 0.00065197, "INCLINATION": 56.8473, "RA_OF_ASC_NODE": 346.8097, "ARG_OF_PERICENTER": 270.7442, "MEAN_ANOMALY": 89.1988, "EPHEMERIS_TYPE": 0, "CLASSIFICATION_TYPE": "U", "NORAD_CAT_ID": 40544, "ELEMENT_SET_NO": 999, "REV_AT_EPOCH": 6594, "BSTAR": 0, "MEAN_MOTION_DOT": -8.6e-07, "MEAN_MOTION_DDOT": 0}, "tle": {"line1": "1 40544U 15017A   25341.98631696 -.00000086  00000+0  00000+0 0  9997", "line2": "2 40544  56.8473 346.8097 0006519 270.7442  89.1988  1.70475803 65948"}}, "geometry": {"type": "Point", "coordinates": [92.53103073466805, 55.81501907060613]}}, {"type": "Feature", "properties": {"norad_id": 40545, "name": "GSAT0204 (GALILEO 8)", "group": "gnss", "lat": -45.20223833342378, "lon": -54.36928845143336, "alt_km": 23213.05148205767, "timestamp": "2025-12-09T07:41:33.448639+00:00", "meta": {"OBJECT_NAME": "GSAT0204 (GALILEO 8)", "OBJECT_ID": "2015-017B", "EPOCH": "2025-12-08T05:48:09.490464", "MEAN_MOTION": 1.70475483, "ECCENTRICITY": 0.00062708, "INCLINATION": 56.8542, "RA_OF_ASC_NODE": 346.8204, "ARG_OF_PERICENTER": 261.7403, "MEAN_ANOMALY": 98.2059, "EPHEMERIS_TYPE": 0, "CLASSIFICATION_TYPE": "U", "NORAD_CAT_ID": 40545, "ELEMENT_SET_NO": 999, "REV_AT_EPOCH": 2899, "BSTAR": 0, "MEAN_MOTION_DOT": -8.6e-07, "MEAN_MOTION_DDOT": 0}, "tle": {"line1": "1 40545U 15017B   25342.24177651 -.00000086  00000+0  00000+0 0  9994", "line2": "2 40545  56.8542 346.8204 0006270 261.7403  98.2059  1.70475483 28995"}}, "geometry": {"type": "Point", "coordinates": [-54.36928845143336, -45.20223833342378]}}, {"type": "Feature", "properties": {"norad_id": 40549, "name": "BEIDOU-3S IGSO-1S (C31)", "group": "gnss", "lat": -7.626526551146961, "lon": -68.83419839489811, "alt_km": 35923.38499823286, "timestamp": "2025-12-09T07:41:33.448651+00:00", "meta": {"OBJECT_NAME": "BEIDOU-3S IGSO-1S (C31)", "OBJECT_ID": "2015-019A", "EPOCH": "2025-12-07T20:38:38.671584", "MEAN_MOTION": 1.00293516, "ECCENTRICITY": 0.00368211, "INCLINATION": 49.562, "RA_OF_ASC_NODE": 297.7693, "ARG_OF_PERICENTER": 193.8977, "MEAN_ANOMALY": 348.5751, "EPHEMERIS_TYPE": 0, "CLASSIFICATION_TYPE": "U", "NORAD_CAT_ID": 40549, "ELEMENT_SET_NO": 999, "REV_AT_EPOCH": 3915, "BSTAR": 0, "MEAN_MOTION_DOT": -1.86e-06, "MEAN_MOTION_DDOT": 0}, "tle": {"line1": "1 40549U 15019A   25341.86016981 -.00000186  00000+0  00000+0 0  9996", "line2": "2 40549  49.5620 297.7693 0036821 193.8977 348.5751  1.00293516 39155"}}, "geometry": {"type": "Point", "coordinates": [-68.83419839489811, -7.626526551146961]}}, {"type": "Feature", "properties": {"norad_id": 40730, "name": "GPS BIIF-10 (PRN 08)", "group": "gnss", "lat": 34.461276720856866, "lon": -55.374148185382964, "alt_km": 19897.394646995097, "timestamp": "2025-12-09T07:41:33.448663+00:00", "meta": {"OBJECT_NAME": "GPS BIIF-10 (PRN 08)", "OBJECT_ID": "2015-033A", "EPOCH": "2025-12-08T18:17:13.153056", "MEAN_MOTION": 2.00565724, "ECCENTRICITY": 0.01107015, "INCLINATION": 54.1342, "RA_OF_ASC_NODE": 274.9366, "ARG_OF_PERICENTER": 26.7113, "MEAN_ANOMALY": 333.8722, "EPHEMERIS_TYPE": 0, "CLASSIFICATION_TYPE": "U", "NORAD_CAT_ID": 40730, "ELEMENT_SET_NO": 999, "REV_AT_EPOCH": 7617, "BSTAR": 0, "MEAN_MOTION_DOT": -4.4e-07, "MEAN_MOTION_DDOT": 0}, "tle": {"line1": "1 40730U 15033A   25342.76195779 -.00000044  00000+0  00000+0 0  9990", "line2": "2 40730  54.1342 274.9366 0110701  26.7113 333.8722  2.00565724 76172"}}, "geometry": {"type": "Point", "coordinates": [-55.374148185382964, 34.461276720856866]}}, {"type": "Feature", "properties": {"norad_id": 40748, "name": "BEIDOU-3S M2S (C58)", "group": "gnss", "lat": 40.36456414980299, "lon": -14.980604880582703, "alt_km": 21550.985832410042, "timestamp": "2025-12-09T07:41:33.448677+00:00", "meta": {"OBJECT_NAME": "BEIDOU-3S M2S (C58)", "OBJECT_ID": "2015-037A", "EPOCH": "2025-12-08T16:56:06.142560", "MEAN_MOTION": 1.86229071, "ECCENTRICITY": 0.00122828, "INCLINATION": 55.0424, "RA_OF_ASC_NODE": 308.6021, "ARG_OF_PERICENTER": 268.3899, "MEAN_ANOMALY": 91.4573, "EPHEMERIS_TYPE": 0, "CLASSIFICATION_TYPE": "U", "NORAD_CAT_ID": 40748, "ELEMENT_SET_NO": 999, "REV_AT_EPOCH": 7057, "BSTAR": 0, "MEAN_MOTION_DOT": -7.3e-07, "MEAN_MOTION_DDOT": 0}, "tle": {"line1": "1 40748U 15037A   25342.70562665 -.00000073  00000+0  00000+0 0  9991", "line2": "2 40748  55.0424 308.6021 0012282 268.3899  91.4573  1.86229071 70579"}}, "geometry": {"type": "Point", "coordinates": [-14.980604880582703, 40.36456414980299]}}, {"type": "Feature", "properties": {"norad_id": 40749, "name": "BEIDOU-3S M1S (C57)", "group": "gnss", "lat": -53.17355032459182, "lon": -162.42818878089835, "alt_km": 21533.637920370624, "timestamp": "2025-12-09T07:41:33.448689+00:00", "meta": {"OBJECT_NAME": "BEIDOU-3S M1S (C57)", "OBJECT_ID": "2015-037B", "EPOCH": "2025-12-08T09:35:11.371488", "MEAN_MOTION": 1.86253811, "ECCENTRICITY": 0.00035729, "INCLINATION": 55.0394, "RA_OF_ASC_NODE": 308.6023, "ARG_OF_PERICENTER": 359.9118, "MEAN_ANOMALY": 0.0754, "EPHEMERIS_TYPE": 0, "CLASSIFICATION_TYPE": "U", "NORAD_CAT_ID": 40749, "ELEMENT_SET_NO": 999, "REV_AT_EPOCH": 7057, "BSTAR": 0, "MEAN_MOTION_DOT": -7.3e-07, "MEAN_MOTION_DDOT": 0}, "tle": {"line1": "1 40749U 15037B   25342.39943717 -.00000073  00000+0  00000+0 0  9998", "line2": "2 40749  55.0394 308.6023 0003572 359.9118   0.0754  1.86253811 70577"}}, "geometry": {"type": "Point", "coordinates": [-162.42818878089835, -53.17355032459182]}}, {"type": "Feature", "properties": {"norad_id": 40889, "name": "GSAT0205 (GALILEO 9)", "group": "gnss", "lat": 54.5985572889851, "lon": -53.12724358031386, "alt_km": 23203.516877664093, "timestamp": "2025-12-09T07:41:33.448700+00:00", "meta": {"OBJECT_NAME": "GSAT0205 (GALILEO 9)", "OBJECT_ID": "2015-045A", "EPOCH": "2025-12-06T20:05:28.161600", "MEAN_MOTION": 1.70472973, "ECCENTRICITY": 0.00059315, "INCLINATION": 55.0055, "RA_OF_ASC_NODE": 226.9215, "ARG_OF_PERICENTER": 39.3036, "MEAN_ANOMALY": 320.836, "EPHEMERIS_TYPE": 0, "CLASSIFICATION_TYPE": "U", "NORAD_CAT_ID": 40889, "ELEMENT_SET_NO": 999, "REV_AT_EPOCH": 6373, "BSTAR": 0, "MEAN_MOTION_DOT": 2.8e-07, "MEAN_MOTION_DDOT": 0}, "tle": {"line1": "1 40889U 15045A   25340.83713150  .00000028  00000+0  00000+0 0  9994", "line2": "2 40889  55.0055 226.9215 0005931  39.3036 320.8360  1.70472973 63731"}}, "geometry": {"type": "Point", "coordinates": [-53.12724358031386, 54.5985572889851]}}, {"type": "Feature", "properties": {"norad_id": 40890, "name": "GSAT0206 (GALILEO 10)", "group": "gnss", "lat": -39.740961154964566, "lon": -168.7311805668087, "alt_km": 23225.716968705234, "timestamp": "2025-12-09T07:41:33.448712+00:00", "meta": {"OBJECT_NAME": "GSAT0206 (GALILEO 10)", "OBJECT_ID": "2015-045B", "EPOCH": "2025-12-08T05:32:31.943328", "MEAN_MOTION": 1.70473105, "ECCENTRICITY": 0.0003529, "INCLINATION": 55.0039, "RA_OF_ASC_NODE": 226.878, "ARG_OF_PERICENTER": 31.5182, "MEAN_ANOMALY": 328.5941, "EPHEMERIS_TYPE": 0, "CLASSIFICATION_TYPE": "U", "NORAD_CAT_ID": 40890, "ELEMENT_SET_NO": 999, "REV_AT_EPOCH": 6378, "BSTAR": 0, "MEAN_MOTION_DOT": 1.8e-07, "MEAN_MOTION_DDOT": 0}, "tle": {"line1": "1 40890U 15045B   25342.23092527  .00000018  00000+0  00000+0 0  9999", "line2": "2 40890  55.0039 226.8780 0003529  31.5182 328.5941  1.70473105 63781"}}, "geometry": {"type": "Point", "coordinates": [-168.7311805668087, -39.740961154964566]}}]}